[{"OBJECT_NAME":"STARLINK-5360","OBJECT_ID":"2022-177AC","EPOCH":"2026-03-09T22:00:01.999584","MEAN_MOTION":15.18143552,"ECCENTRICITY":0.00022076,"INCLINATION":43.001,"RA_OF_ASC_NODE":130.9365,"ARG_OF_PERICENTER":272.5411,"MEAN_ANOMALY":66.9957,"EPHEMERIS_TYPE":0,"CLASSIFICATION_TYPE":"U","NORAD_CAT_ID":54846,"ELEMENT_SET_NO":999,"REV_AT_EPOCH":573,"BSTAR":0.05662677,"MEAN_MOTION_DOT":0.01273882,"MEAN_MOTION_DDOT":0},{"OBJECT_NAME":"BOTSAT-1","OBJECT_ID":"2025-052G","EPOCH":"2026-03-09T23:13:47.101728","MEAN_MOTION":15.25344695,"ECCENTRICITY":0.00042577,"INCLINATION":97.3996,"RA_OF_ASC_NODE":323.8586,"ARG_OF_PERICENTER":100.6807,"MEAN_ANOMALY":259.491,"EPHEMERIS_TYPE":0,"CLASSIFICATION_TYPE":"U","NORAD_CAT_ID":63216,"ELEMENT_SET_NO":999,"REV_AT_EPOCH":5482,"BSTAR":0.00045821867,"MEAN_MOTION_DOT":0.00011491,"MEAN_MOTION_DDOT":0}]
